STARLINK-5651           
1 55357U 23013AC  24182.91329538  .00000776  00000+0  72517-4 0  9996
2 55357  43.0046  51.4288 0001384 269.2036  90.8647 15.02533635 78930
STARLINK-5622           
1 55358U 23013AD  24182.91551690 -.00000063  00000+0  10424-4 0  9992
2 55358  43.0060  51.4472 0001460 255.2916 104.7765 15.02531587 78939
STARLINK-5641           
1 55359U 23013AE  24182.90996626  .00000236  00000+0  32574-4 0  9995
2 55359  43.0062  51.4057 0001027 270.6130  89.4595 15.02533060 78937
STARLINK-5664           
1 55360U 23013AF  24182.95953101  .00001516  00000+0  12722-3 0  9997
2 55360  43.0031  63.9071 0001346 278.5809  81.4881 15.02544421 78790
STARLINK-5665           
1 55361U 23013AG  24182.93020651  .00001352  00000+0  11509-3 0  9991
2 55361  43.0042  38.5459 0001501 296.2815  63.7873 15.02542426 79088
STARLINK-5574           
1 55362U 23013AH  24182.86705154 -.00008288  00000+0 -59861-3 0  9992
2 55362  43.0047  38.9292 0001623 279.1543  80.9116 15.02570286 79071
STARLINK-5648           
1 55363U 23013AJ  24182.93967417 -.00000253  00000+0 -36552-5 0  9991
2 55363  43.0039  64.6194 0001043 260.9545  99.1180 15.02538082 78784
STARLINK-5627           
1 55364U 23013AK  24182.90774468  .00002347  00000+0  18886-3 0  9993
2 55364  43.0049  51.3846 0001404 249.4390 110.6302 15.02520720 78936
STARLINK-5639           
1 55365U 23013AL  24182.73358227 -.00000826  00000+0 -46082-4 0  9998
2 55365  43.0052  65.6521 0001338 271.5793  88.4896 15.02538729 78756
STARLINK-5654           
1 55366U 23013AM  24182.93574654  .00002209  00000+0  17851-3 0  9991
2 55366  43.0044  38.5868 0001263 278.5500  81.5199 15.02536359 79085
STARLINK-5635           
1 55367U 23013AN  24182.68759392  .00000996  00000+0  88827-4 0  9991
2 55367  43.0051  40.1576 0001309 261.7968  98.2726 15.02535403 79048
STARLINK-5625           
1 55368U 23013AP  24182.72743493  .00000659  00000+0  63859-4 0  9996
2 55368  43.0053  39.6050 0001328 258.2967 101.7726 15.02536177 79052
STARLINK-5644           
1 55369U 23013AQ  24182.73246662  .00000731  00000+0  69200-4 0  9991
2 55369  43.0040  65.6423 0001185 253.0954 106.9758 15.02537867 78757
STARLINK-5027           
1 55370U 23013AR  24182.93634472  .00000429  00000+0  46823-4 0  9995
2 55370  43.0079  64.5965 0000940 272.1882  87.8852 15.02534399 78782
STARLINK-5590           
1 55371U 23013AS  24182.39009753  .00001067  00000+0  94078-4 0  9998
2 55371  43.0084  67.3772 0001150 263.8307  96.2405 15.02536595 79137
STARLINK-5568           
1 55372U 23013AT  24182.39676733  .00000091  00000+0  21780-4 0  9993
2 55372  43.0072  67.4233 0001098 262.0825  97.9893 15.02523312 78709
STARLINK-5581           
1 55373U 23013AU  24182.94966619 -.00002887  00000+0 -19871-3 0  9994
2 55373  43.0060  64.6887 0001254 278.6096  81.4604 15.02537946 78782
STARLINK-5578           
1 55374U 23013AV  24182.39343133  .00000132  00000+0  24814-4 0  9997
2 55374  43.0046  67.3997 0001408 271.7465  88.3216 15.02532275 79139
STARLINK-5588           
1 55375U 23013AW  24182.38343678 -.00000654  00000+0 -33368-4 0  9996
2 55375  43.0046  67.3254 0001061 272.4438  87.6283 15.02538646 78705
STARLINK-5586           
1 55376U 23013AX  24182.62444883  .00000466  00000+0  49557-4 0  9990
2 55376  43.0037  40.5393 0001050 262.1916  97.8807 15.02532929 79038
STARLINK-5567           
1 55377U 23013AY  24182.70250958 -.00000376  00000+0 -12742-4 0  9996
2 55377  43.0063  65.4195 0001166 272.2827  87.7882 15.02529281 78751
STARLINK-5572           
1 55378U 23013AZ  24182.71915944  .00000972  00000+0  87065-4 0  9991
2 55378  43.0089  65.5452 0001363 278.0646  82.0041 15.02527330 78757
STARLINK-5569           
1 55379U 23013BA  24182.70916863 -.00000454  00000+0 -18528-4 0  9997
2 55379  43.0044  65.4632 0001145 267.7109  92.3602 15.02528951 78752
STARLINK-5571           
1 55380U 23013BB  24182.32080401 -.00000025  00000+0  13234-4 0  9999
2 55380  43.0038  41.7118 0001219 264.8250  95.2453 15.02531483 78996
STARLINK-5575           
1 55381U 23013BC  24182.37344538  .00000645  00000+0  62828-4 0  9999
2 55381  43.0046  67.2489 0001295 280.9075  79.1621 15.02534569 78703
STARLINK-5576           
1 55382U 23013BD  24182.71249666  .00000963  00000+0  86340-4 0  9992
2 55382  43.0050  65.4942 0001075 267.9449  92.1270 15.02533546 78753
STARLINK-5531           
1 55383U 23013BE  24182.31747714 -.00000873  00000+0 -49539-4 0  9997
2 55383  43.0053  41.6836 0001377 262.4763  97.5923 15.02526013 78990
STARLINK-5537           
1 55384U 23013BF  24182.77675384  .00000508  00000+0  52688-4 0  9993
2 55384  43.0042  65.1176 0001216 273.9464  86.1240 15.02533035 78767
STARLINK-5556           
1 55385U 23013BG  24182.96175700  .00001029  00000+0  91270-4 0  9991
2 55385  43.0055  63.9231 0001216 267.2259  92.8444 15.02535094 78798
STARLINK-5555           
1 55386U 23013BH  24182.69917260 -.00000652  00000+0 -33227-4 0  9998
2 55386  43.0038  65.3930 0001458 275.7221  84.3455 15.02530412 78756
STARLINK-5077           
1 55391U 23014A   24182.42749215  .00000421  00000+0  43957-4 0  9992
2 55391  69.9993 180.4520 0003084 273.9531  86.1275 14.97517134 79608
STARLINK-5085           
1 55392U 23014B   24182.64238978  .00000519  00000+0  51283-4 0  9995
2 55392  69.9999 160.1419 0003418 265.7629  94.3139 14.98331100 80122
STARLINK-4786           
1 55393U 23014C   24182.72206401 -.00000091  00000+0  19402-6 0  9996
2 55393  69.9988 179.9009 0003407 269.2721  90.8048 14.98330639 79645
STARLINK-5230           
1 55394U 23014D   24182.91667824  .01460121  00000+0  94567-1 0  9992
2 55394  69.9999 179.3422 0002968 266.6837 112.8781 15.04626976  5324
STARLINK-5274           
1 55395U 23014E   24182.73024570  .00000428  00000+0  43665-4 0  9993
2 55395  69.9987 179.9063 0003315 269.8424  90.2355 14.98330059 79641
STARLINK-5283           
1 55396U 23014F   24182.72607069  .00000358  00000+0  37827-4 0  9998
2 55396  69.9989 179.9026 0003341 269.5700  90.5076 14.98329795 79644
STARLINK-5224           
1 55397U 23014G   24182.68830856  .00000384  00000+0  39961-4 0  9996
2 55397  69.9993 160.2878 0003003 269.4885  90.5930 14.98329882 80127
STARLINK-5275           
1 55398U 23014H   24182.74277616 -.00000669  00000+0 -48272-4 0  9996
2 55398  69.9987 179.9598 0003402 269.7292  90.3477 14.98323233 79648
STARLINK-5276           
1 55399U 23014J   24182.73441969  .00000049  00000+0  11879-4 0  9993
2 55399  69.9989 179.9299 0003366 269.0757  91.0017 14.98329473 79647
STARLINK-5632           
1 55400U 23014K   24182.41729180 -.00000501  00000+0 -34222-4 0  9997
2 55400  69.9981 180.8284 0003409 272.2865  87.7904 14.98330581 79594
STARLINK-5076           
1 55401U 23014L   24182.73859587 -.00000645  00000+0 -46301-4 0  9998
2 55401  69.9989 179.9446 0003715 265.9813  94.0921 14.98323228 79640
STARLINK-5071           
1 55402U 23014M   24182.69270707 -.00001270  00000+0 -98672-4 0  9998
2 55402  69.9995 180.1880 0003190 268.6746  91.4047 14.98330721 79631
STARLINK-5597           
1 55403U 23014N   24182.41314513 -.00000069  00000+0  20322-5 0  9995
2 55403  69.9989 180.8156 0003497 268.2712  91.8047 14.98328034 79590
STARLINK-5607           
1 55404U 23014P   24182.70103726  .00000143  00000+0  19756-4 0  9990
2 55404  69.9988 180.2158 0003454 268.9021  91.1743 14.98337551 79634
STARLINK-5623           
1 55405U 23014Q   24182.95556743  .00000837  00000+0  77906-4 0  9990
2 55405  69.9992 179.4992 0003526 271.3947  88.6809 14.98333182 79675
STARLINK-5630           
1 55406U 23014R   24182.70522783 -.00000061  00000+0  26706-5 0  9994
2 55406  69.9994 180.2320 0003305 268.5419  91.5361 14.98330150 79634
STARLINK-5019           
1 55407U 23014S   24182.42984018 -.00000037  00000+0  47267-5 0  9995
2 55407  69.9993 180.8754 0003572 268.6133  91.4616 14.98329367 79596
STARLINK-5092           
1 55408U 23014T   24182.70940341 -.00000412  00000+0 -26715-4 0  9990
2 55408  69.9991 180.2470 0003296 267.8379  92.2403 14.98327349 79636
STARLINK-5047           
1 55409U 23014U   24182.70539333  .00000161  00000+0  21329-4 0  9991
2 55409  69.9993 180.2325 0003321 268.0603  92.0176 14.98329749 79631
STARLINK-5633           
1 55410U 23014V   24182.47595223  .00000522  00000+0  51567-4 0  9995
2 55410  69.9988 200.5021 0003561 269.7060  90.3691 14.98329927 79111
STARLINK-5605           
1 55411U 23014W   24182.71357679 -.00000935  00000+0 -70616-4 0  9990
2 55411  69.9993 180.2621 0003494 271.7082  88.3677 14.98324091 79635
STARLINK-5033           
1 55412U 23014X   24182.48446865 -.00000732  00000+0 -53589-4 0  9996
2 55412  69.9992 200.5318 0003455 268.0437  92.0326 14.98330493 79113
STARLINK-5060           
1 55413U 23014Y   24182.47177857 -.00001342  00000+0 -10468-3 0  9994
2 55413  69.9989 200.4884 0003594 271.0100  89.0647 14.98324797 79114
STARLINK-5620           
1 55414U 23014Z   24182.75553366  .00001807  00000+0  15932-3 0  9994
2 55414  69.9998 199.8705 0003219 281.0405  79.0392 14.98301686 79153
STARLINK-5618           
1 55415U 23014AA  24182.47193807 -.00000795  00000+0 -58823-4 0  9998
2 55415  69.9991 200.4901 0003821 270.0537  90.0184 14.98325454 79114
STARLINK-5624           
1 55416U 23014AB  24182.43006297  .00000095  00000+0  15763-4 0  9998
2 55416  69.9984 200.7456 0003525 268.5569  91.5186 14.98331182 79105
STARLINK-5616           
1 55417U 23014AC  24182.75133267 -.00000287  00000+0 -16287-4 0  9999
2 55417  70.0006 199.8582 0003374 270.9835  89.0938 14.98336452 79154
STARLINK-5030           
1 55418U 23014AD  24182.77221037  .00000339  00000+0  36190-4 0  9996
2 55418  69.9980 199.9344 0003523 269.0455  91.0301 14.98329677 79151
STARLINK-5629           
1 55419U 23014AE  24182.49265250 -.00000670  00000+0 -48348-4 0  9999
2 55419  69.9987 200.5630 0003129 268.6823  91.3978 14.98325485 79114
